GSAT0101 (PRN E11)      
1 37846U 11060A   21039.93242949 -.00000065  00000-0  00000-0 0  9995
2 37846  56.7713  34.7938 0004103 323.0287  36.9574  1.70475186 57809
GSAT0102 (PRN E12)      
1 37847U 11060B   21039.81625431 -.00000065  00000-0  00000+0 0  9993
2 37847  56.7713  34.7964 0005837 308.7912  26.0866  1.70475344 57922
GSAT0103 (PRN E19)      
1 38857U 12055A   21039.38741353 -.00000026  00000-0  00000-0 0  9992
2 38857  55.0196 155.2880 0002591 247.9996 111.9316  1.70473560 51833
GSAT0104 (PRN E20)      
1 38858U 12055B   21040.49501567 -.00000029  00000-0  00000-0 0  9991
2 38858  55.0206 155.2572 0001393 246.5382 113.4059  1.70473491 51853
GSAT0201 (PRN E18)      
1 40128U 14050A   21040.02320138 -.00000116  00000-0  00000-0 0  9990
2 40128  50.5199 351.9411 1651494 107.0768 271.6207  1.85518986 42067
GSAT0202 (PRN E14)      
1 40129U 14050B   21040.28605187 -.00000116  00000-0  00000-0 0  9999
2 40129  50.5524 350.9755 1648951 107.8956 270.7203  1.85519642 44238
GSAT0203 (PRN E26)      
1 40544U 15017A   21039.71363607 -.00000065  00000-0  00000-0 0  9991
2 40544  56.5649  34.9009 0005345 268.9476  91.0064  1.70474710 35883
GSAT0204 (PRN E22)      
1 40545U 15017B   21040.08112377 -.00000066  00000-0  00000-0 0  9991
2 40545  56.5714  34.9076 0003023 253.7447 106.2361  1.70475002 36551
GSAT0205 (PRN E24)      
1 40889U 15045A   21039.73654754  .00000024  00000-0  00000-0 0  9996
2 40889  55.9696 275.5905 0005977  18.1771 341.9207  1.70474805 33690
GSAT0206 (PRN E30)      
1 40890U 15045B   21039.95605791  .00000024  00000-0  00000-0 0  9999
2 40890  55.9687 275.5808 0004197  13.3222 346.7659  1.70474829 33729
GSAT0209 (PRN E09)      
1 41174U 15079A   21040.12960754 -.00000028  00000-0  00000-0 0  9991
2 41174  55.0350 154.9674 0003201 315.9455  43.9879  1.70473675 31634
GSAT0208 (PRN E08)      
1 41175U 15079B   21040.34931651 -.00000029  00000-0  00000-0 0  9991
2 41175  55.0334 154.9604 0002403 318.7798  41.1611  1.70473684 32055
GSAT0211 (PRN E02)      
1 41549U 16030A   21039.88422229  .00000025  00000-0  00000-0 0  9992
2 41549  56.1126 275.4639 0004427 346.8225  13.2429  1.70474502 29359
GSAT0210 (PRN E01)      
1 41550U 16030B   21040.17708799  .00000024  00000-0  00000-0 0  9996
2 41550  56.1125 275.4572 0002842 327.5728  32.4873  1.70474597 29359
GSAT0207 (PRN E07)      
1 41859U 16069A   21040.42232831 -.00000029  00000-0  00000-0 0  9993
2 41859  54.6930 155.2626 0003066 296.3214  63.6056  1.70473610 26255
GSAT0212 (PRN E03)      
1 41860U 16069B   21040.27576785 -.00000029  00000-0  00000-0 0  9997
2 41860  54.6912 155.2655 0002170 334.5559  25.3917  1.70473678 26346
GSAT0213 (PRN E04)      
1 41861U 16069C   21039.46829956 -.00000026  00000-0  00000-0 0  9995
2 41861  54.6935 155.2923 0002577 261.7799  98.1493  1.70473598 26335
GSAT0214 (PRN E05)      
1 41862U 16069D   21039.02877650 -.00000024  00000-0  00000-0 0  9990
2 41862  54.6916 155.2995 0001739 266.8219  93.1175  1.70473693 26312
GSAT0215 (PRN E21)      
1 43055U 17079A   21040.10604900  .00000025  00000-0  00000-0 0  9995
2 43055  56.0869 275.2976 0002224 333.6414  26.4246  1.70473764 19671
GSAT0216 (PRN E25)      
1 43056U 17079B   21039.81205216  .00000025  00000-0  00000-0 0  9999
2 43056  56.0874 275.3054 0003583 308.2127  51.8318  1.70473881 19687
GSAT0217 (PRN E27)      
1 43057U 17079C   21040.03215894  .00000025  00000-0  00000-0 0  9999
2 43057  56.0848 275.2998 0003718 324.4841  35.5684  1.70473792 19673
GSAT0218 (PRN E31)      
1 43058U 17079D   21040.25215637  .00000024  00000-0  00000-0 0  9998
2 43058  56.0854 275.2909 0003797 300.4248  59.6154  1.70473807 19705
GSAT0221 (PRN E15)      
1 43564U 18060A   21039.56395284 -.00000064  00000-0  00000-0 0  9995
2 43564  56.9510  34.5937 0006182 280.3657  79.5798  1.70475778 15848
GSAT0222 (PRN E33)      
1 43565U 18060B   21039.19721267 -.00000063  00000-0  00000-0 0  9998
2 43565  56.9517  34.6034 0005940 286.4863  73.4647  1.70475780 15885
GSAT0219 (PRN E36)      
1 43566U 18060C   21040.00424827 -.00000065  00000-0  00000-0 0  9995
2 43566  56.9535  34.5831 0005608 283.2009  76.7502  1.70475637 15874
GSAT0220 (PRN E13)      
1 43567U 18060D   21039.05097102 -.00000062  00000-0  00000-0 0  9998
2 43567  56.9525  34.6092 0005669 283.8898  76.0639  1.70475595 15847
